{
  "norad_id": 68683,
  "name": "STARLINK-37304",
  "history": [
    {
      "epoch": "2026-04-22T09:41:07.850976Z",
      "apogee_km": 338.1955622454079,
      "perigee_km": 336.488487477287,
      "latitude_deg": -5.400057939703351e-05,
      "longitude_deg": -12.26694945863517,
      "height_km": 340.5855710269484,
      "semi_major_axis_km": 6715.479024861347,
      "eccentricity": 0.0001271,
      "inclination_deg": 97.2832,
      "raan_deg": 343.4814,
      "arg_perigee_deg": 94.9722,
      "mean_anomaly_deg": 265.1689,
      "mean_motion_rev_day": 15.77565015
    },
    {
      "epoch": "2026-04-24T15:02:30.793920Z",
      "apogee_km": 344.5695283743271,
      "perigee_km": 343.32863128399003,
      "latitude_deg": -4.975899568121648e-05,
      "longitude_deg": -92.47181776501951,
      "height_km": 347.24965097581696,
      "semi_major_axis_km": 6722.086079829159,
      "eccentricity": 9.23e-05,
      "inclination_deg": 97.2845,
      "raan_deg": 345.8134,
      "arg_perigee_deg": 102.4305,
      "mean_anomaly_deg": 257.7063,
      "mean_motion_rev_day": 15.75239733
    },
    {
      "epoch": "2026-04-24T15:02:30.794784Z",
      "apogee_km": 344.56979725777,
      "perigee_km": 343.3283624005471,
      "latitude_deg": -5.422998180333972e-05,
      "longitude_deg": -92.47182080657373,
      "height_km": 347.2497088690032,
      "semi_major_axis_km": 6722.086079829159,
      "eccentricity": 9.234e-05,
      "inclination_deg": 97.2845,
      "raan_deg": 345.8134,
      "arg_perigee_deg": 102.4305,
      "mean_anomaly_deg": 257.7063,
      "mean_motion_rev_day": 15.75239733
    },
    {
      "epoch": "2026-04-26T22:00:00.999936Z",
      "apogee_km": 345.1043754413331,
      "perigee_km": 343.0441521332077,
      "latitude_deg": 16.629252324421657,
      "longitude_deg": 161.12381131702904,
      "height_km": 346.29887717634693,
      "semi_major_axis_km": 6722.211263787271,
      "eccentricity": 0.00015324,
      "inclination_deg": 97.2844,
      "raan_deg": 348.2176,
      "arg_perigee_deg": 90.5099,
      "mean_anomaly_deg": 286.2924,
      "mean_motion_rev_day": 15.75195731
    },
    {
      "epoch": "2026-04-27T13:10:35.321088Z",
      "apogee_km": 345.0464867360961,
      "perigee_km": 342.91557532026036,
      "latitude_deg": 4.679327600366997e-05,
      "longitude_deg": -64.30411792508905,
      "height_km": 346.7637735636231,
      "semi_major_axis_km": 6722.118031028178,
      "eccentricity": 0.0001585,
      "inclination_deg": 97.2846,
      "raan_deg": 348.8803,
      "arg_perigee_deg": 68.9223,
      "mean_anomaly_deg": 291.2212,
      "mean_motion_rev_day": 15.75228502
    },
    {
      "epoch": "2026-04-28T21:11:39.518592Z",
      "apogee_km": 345.1326389808255,
      "perigee_km": 342.5970998756766,
      "latitude_deg": 5.9105083709524946e-06,
      "longitude_deg": 175.51287300533738,
      "height_km": 347.21959211874923,
      "semi_major_axis_km": 6722.001869428251,
      "eccentricity": 0.0001886,
      "inclination_deg": 97.2846,
      "raan_deg": 350.2797,
      "arg_perigee_deg": 98.5861,
      "mean_anomaly_deg": 261.5618,
      "mean_motion_rev_day": 15.75269334
    }
  ]
}